*******************************************************************************
JPL/HORIZONS               3200 Phaethon (1983 TB)         2023-Sep-21 12:08:25
Rec #:    3200 (+COV) Soln.date: 2023-Aug-23_08:16:51   # obs: 6354 (1983-2023)
 
IAU76/J2000 helio. ecliptic osc. elements (au, days, deg., period=Julian yrs):
 
  EPOCH=  2459531.5 ! 2021-Nov-13.00 (TDB)         Residual RMS= .11897
   EC= .8897706848143104   QR= .1401421231591362   TP= 2459714.6820560358
   OM= 265.2223925648174   W=  322.1764449117995   IN= 22.25577405477004
   A= 1.271368899671165    MA= 234.0553778187632   ADIST= 2.402595676183194
   PER= 1.43356            N= .687537988           ANGMOM= .00885259
   DAN= .15553             DDN= .8912              L= 229.5250407
   B= -13.4299629          MOID= .0194654          TP= 2022-May-15.1820560358
 
Asteroid physical parameters (km, seconds, rotational period in hours):
   GM= n.a.                RAD= 3.125              ROTPER= 3.604
   H= 14.4                 G= .150                 B-V= n.a.
                           ALBEDO= .1066           STYP= B

Asteroid non-gravitational force model (AMRAT= m^2/kg;A1,A2,A3=au/d^2;R0=au):
   AMRAT=  0.
   A1= 0.                  A2= -5.711995072488E-15 A3= 0.
 Non-standard or simulated/proxy model:
   ALN=  1.            NK=  0.       NM=  2.       NN=  0.       R0=  1.

ASTEROID comments: 
1: soln ref.= JPL#781, PHA  OCC=0       radar( 8 delay, 0 Dop.)
2: source=ORB
*******************************************************************************

  
  

*******************************************************************************
Ephemeris / WWW_USER Thu Sep 21 12:08:25 2023 Pasadena, USA      / Horizons    
*******************************************************************************
Target body name: 3200 Phaethon (1983 TB)         {source: JPL#781}
Center body name: Earth (399)                     {source: DE441}
Center-site name: Royal Obs.,Blackford Hill,Edinburgh
*******************************************************************************
Start time      : A.D. 1973-Jul-10 23:44:00.0000 UT      
Stop  time      : A.D. 2002-Nov-11 06:21:00.0000 UT      
Step-size       : 1440 minutes
*******************************************************************************
Target pole/equ : undefined
Target radii    : 3.125 km                                                     
Center geodetic : 356.8175, 55.9249145, .118735   {E-lon(deg),Lat(deg),Alt(km)}
Center cylindric: 356.8175,3581.83678,5259.86113  {E-lon(deg),Dxy(km),Dz(km)}
Center pole/equ : ITRF93                          {East-longitude positive}
Center radii    : 6378.137, 6378.137, 6356.752 km {Equator_a, b, pole_c}       
Target primary  : Sun
Vis. interferer : MOON (R_eq= 1737.400) km        {source: DE441}
Rel. light bend : Sun                             {source: DE441}
Rel. lght bnd GM: 1.3271E+11 km^3/s^2                                          
Small-body perts: Yes                             {source: SB441-N16}
Atmos refraction: NO (AIRLESS)
RA format       : HMS
Time format     : CAL 
Calendar mode   : Mixed Julian/Gregorian
EOP file        : eop.230919.p231213                                           
EOP coverage    : DATA-BASED 1962-JAN-20 TO 2023-SEP-19. PREDICTS-> 2023-DEC-12
Units conversion: 1 au= 149597870.700 km, c= 299792.458 km/s, 1 day= 86400.0 s 
Table cut-offs 1: Elevation (-90.0deg=NO ),Airmass (>38.000=NO), Daylight (NO )
Table cut-offs 2: Solar elongation (  0.0,180.0=NO ),Local Hour Angle( 0.0=NO )
Table cut-offs 3: RA/DEC angular rate (     0.0=NO )                           
*******************************************************************************
Initial IAU76/J2000 heliocentric ecliptic osculating elements (au, days, deg.):
  EPOCH=  2459531.5 ! 2021-Nov-13.00 (TDB)         Residual RMS= .11897        
   EC= .8897706848143104   QR= .1401421231591362   TP= 2459714.6820560358      
   OM= 265.2223925648174   W=  322.1764449117995   IN= 22.25577405477004       
  Equivalent ICRF heliocentric cartesian coordinates (au, au/d):
   X= 1.223249201368912E+00  Y= 1.522469595897864E+00  Z= 1.135120954213187E+00
  VX=-4.961732525563415E-03 VY= 6.050206963671223E-05 VZ=-2.149481284445920E-03
Asteroid physical parameters (km, seconds, rotational period in hours):        
   GM= n.a.                RAD= 3.125              ROTPER= 3.604               
   H= 14.4                 G= .150                 B-V= n.a.                   
                           ALBEDO= .1066           STYP= B                     
Asteroid non-gravitational force model (AMRAT= m^2/kg;A1,A2,A3=au/d^2;R0=au):  
   AMRAT=  0.                                                                  
   A1= 0.                  A2= -5.711995072488E-15 A3= 0.                      
 Non-standard or simulated/proxy model:                                        
   ALN=  1.            NK=  0.       NM=  2.       NN=  0.       R0=  1.       
******************************************************************************************************************************************************************************
 Date__(UT)__HR:MN     R.A.__(FK4/B1950)___DEC    APmag   S-brt             delta      deldot     S-O-T /r     S-T-O  Sky_motion  Sky_mot_PA  RelVel-ANG  Lun_Sky_Brt  sky_SNR
******************************************************************************************************************************************************************************
$$SOE
 1981-Mar-10 23:44  m  01 02 06.74 +19 47 35.4   19.081   6.228  2.81574734755476  24.2174217   34.0763 /T   15.6092   1.0353716   73.712852   34.493888         n.a.     n.a.
 1981-Mar-11 23:44  m  01 03 47.33 +19 54 36.6   19.089   6.225  2.82956782849289  23.9184211   33.5237 /T   15.3398   1.0320703   73.676489   34.117016         n.a.     n.a.
 1981-Mar-12 23:44  m  01 05 27.65 +20 01 37.4   19.096   6.223  2.84321628872129  23.6175136   32.9715 /T   15.0714   1.0288193   73.642076   33.737050         n.a.     n.a.
 1981-Mar-13 23:44  m  01 07 07.70 +20 08 37.7   19.103   6.220  2.85669166952768  23.3148101   32.4196 /T   14.8038   1.0256209   73.609605   33.353976         n.a.     n.a.
 1981-Mar-14 23:44  m  01 08 47.51 +20 15 37.6   19.110   6.217  2.86999296370708  23.0103797   31.8683 /T   14.5372   1.0224774   73.579050   32.967738         n.a.     n.a.
 1981-Mar-15 23:44  m  01 10 27.06 +20 22 36.8   19.116   6.214  2.88311919362304  22.7042575   31.3175 /T   14.2716   1.0193908   73.550373   32.578253         n.a.     n.a.
 1981-Mar-16 23:44  m  01 12 06.38 +20 29 35.5   19.122   6.211  2.89606939353970  22.3964515   30.7673 /T   14.0069   1.0163625   73.523526   32.185424         n.a.     n.a.
 1981-Mar-17 23:44  m  01 13 45.46 +20 36 33.7   19.128   6.208  2.90884259579312  22.0869485   30.2179 /T   13.7432   1.0133936   73.498454   31.789143         n.a.     n.a.
 1981-Mar-18 23:44  m  01 15 24.31 +20 43 31.2   19.133   6.205  2.92143782020331  21.7757197   29.6692 /T   13.4806   1.0104843   73.475099   31.389299         n.a.     n.a.
 1981-Mar-19 23:44  m  01 17 02.94 +20 50 28.0   19.139   6.202  2.93385406634220  21.4627253   29.1215 /T   13.2190   1.0076346   73.453402   30.985786         n.a.     n.a.
 1981-Mar-20 23:44  m  01 18 41.36 +20 57 24.2   19.144   6.198  2.94609030850261  21.1479189   28.5748 /T   12.9584   1.0048436   73.433303   30.578502         n.a.     n.a.
 1981-Mar-21 23:44  m  01 20 19.57 +21 04 19.8   19.148   6.195  2.95814549326118  20.8312522   28.0292 /T   12.6990   1.0021101   73.414746   30.167356         n.a.     n.a.
 1981-Mar-22 23:44  m  01 21 57.58 +21 11 14.6   19.153   6.191  2.97001853937140  20.5126785   27.4849 /T   12.4407   0.9994324   73.397675   29.752270         n.a.     n.a.
 1981-Mar-23 23:44  m  01 23 35.39 +21 18 08.8   19.157   6.187  2.98170833945936  20.1921549   26.9419 /T   12.1835   0.9968085   73.382040   29.333177         n.a.     n.a.
 1981-Mar-24 23:44  m  01 25 13.01 +21 25 02.2   19.161   6.183  2.99321376276441  19.8696439   26.4004 /T   11.9276   0.9942360   73.367795   28.910024         n.a.     n.a.
 1981-Mar-25 23:44     01 26 50.46 +21 31 54.9   19.165   6.179  3.00453365807513  19.5451127   25.8604 /T   11.6730   0.9917126   73.354895   28.482766         n.a.     n.a.
 1981-Mar-26 23:44     01 28 27.72 +21 38 46.9   19.168   6.175  3.01566685610297  19.2185319   25.3223 /T   11.4197   0.9892356   73.343299   28.051363         n.a.     n.a.
 1981-Mar-27 23:44     01 30 04.81 +21 45 38.1   19.171   6.171  3.02661217080772  18.8898732   24.7861 /T   11.1678   0.9868022   73.332969   27.615781         n.a.     n.a.
 1981-Mar-28 23:44     01 31 41.73 +21 52 28.5   19.174   6.166  3.03736839962276  18.5591080   24.2521 /T   10.9173   0.9844094   73.323865   27.175988         n.a.     n.a.
 1981-Mar-29 23:44     01 33 18.49 +21 59 18.1   19.177   6.162  3.04793432312450  18.2262074   23.7203 /T   10.6683   0.9820540   73.315953   26.731957         n.a.     n.a.
 1981-Mar-30 23:44     01 34 55.09 +22 06 07.0   19.179   6.157  3.05830870545930  17.8911450   23.1910 /T   10.4209   0.9797322   73.309199   26.283673         n.a.     n.a.
 1981-Mar-31 23:44     01 36 31.53 +22 12 55.0   19.181   6.153  3.06849029773145  17.5539043   22.6645 /T   10.1752   0.9774395   73.303579   25.831147         n.a.     n.a.
 1981-Apr-01 23:44     01 38 07.83 +22 19 42.2   19.183   6.148  3.07847784731150  17.2144920   22.1410 /T    9.9313   0.9751707   73.299085   25.374430         n.a.     n.a.
 1981-Apr-02 23:44     01 39 43.97 +22 26 28.5   19.185   6.143  3.08827011605404  16.8729553   21.6207 /T    9.6893   0.9729201   73.295728   24.913637         n.a.     n.a.
 1981-Apr-03 23:44     01 41 19.96 +22 33 14.0   19.186   6.138  3.09786590882680  16.5293991   21.1040 /T    9.4493   0.9706818   73.293549   24.448956         n.a.     n.a.
 1981-Apr-04 23:44     01 42 55.81 +22 39 58.5   19.188   6.133  3.10726411001066  16.1839948   20.5912 /T    9.2115   0.9684506   73.292612   23.980645         n.a.     n.a.
 1981-Apr-05 23:44     01 44 31.52 +22 46 42.2   19.189   6.128  3.11646372065772  15.8369725   20.0826 /T    8.9759   0.9662227   73.293001   23.509008         n.a.     n.a.
 1981-Apr-06 23:44     01 46 07.08 +22 53 24.8   19.189   6.123  3.12546388574156  15.4885955   19.5785 /T    8.7428   0.9639963   73.294800   23.034351         n.a.     n.a.
